[{"OBJECT_NAME":"HELIOS 1B","OBJECT_ID":"1999-064A","EPOCH":"2026-03-18T15:49:11.659872","MEAN_MOTION":14.87733817,"ECCENTRICITY":0.00022657,"INCLINATION":98.1686,"RA_OF_ASC_NODE":340.1658,"ARG_OF_PERICENTER":62.2411,"MEAN_ANOMALY":297.9033,"EPHEMERIS_TYPE":0,"CLASSIFICATION_TYPE":"U","NORAD_CAT_ID":25977,"ELEMENT_SET_NO":999,"REV_AT_EPOCH":68659,"BSTAR":0.00017619538,"MEAN_MOTION_DOT":1.548e-5,"MEAN_MOTION_DDOT":0},{"OBJECT_NAME":"SL-16 R/B","OBJECT_ID":"2000-006B","EPOCH":"2026-03-18T10:04:46.615008","MEAN_MOTION":14.15823842,"ECCENTRICITY":0.00162902,"INCLINATION":71.0003,"RA_OF_ASC_NODE":79.4786,"ARG_OF_PERICENTER":176.6543,"MEAN_ANOMALY":183.4693,"EPHEMERIS_TYPE":0,"CLASSIFICATION_TYPE":"U","NORAD_CAT_ID":26070,"ELEMENT_SET_NO":999,"REV_AT_EPOCH":34979,"BSTAR":-5.1578126e-5,"MEAN_MOTION_DOT":-1.49e-6,"MEAN_MOTION_DDOT":0},{"OBJECT_NAME":"TITAN 4B R/B","OBJECT_ID":"2000-047B","EPOCH":"2026-03-18T10:36:57.469248","MEAN_MOTION":15.09648496,"ECCENTRICITY":0.00389529,"INCLINATION":67.9911,"RA_OF_ASC_NODE":15.8966,"ARG_OF_PERICENTER":25.0077,"MEAN_ANOMALY":335.2948,"EPHEMERIS_TYPE":0,"CLASSIFICATION_TYPE":"U","NORAD_CAT_ID":26474,"ELEMENT_SET_NO":999,"REV_AT_EPOCH":39423,"BSTAR":0.00023417285,"MEAN_MOTION_DOT":3.708e-5,"MEAN_MOTION_DDOT":0},{"OBJECT_NAME":"ENVISAT","OBJECT_ID":"2002-009A","EPOCH":"2026-03-18T14:28:40.489824","MEAN_MOTION":14.39040099,"ECCENTRICITY":0.00013056,"INCLINATION":98.3743,"RA_OF_ASC_NODE":30.9891,"ARG_OF_PERICENTER":82.3701,"MEAN_ANOMALY":91.2033,"EPHEMERIS_TYPE":0,"CLASSIFICATION_TYPE":"U","NORAD_CAT_ID":27386,"ELEMENT_SET_NO":999,"REV_AT_EPOCH":26045,"BSTAR":4.722427e-5,"MEAN_MOTION_DOT":1.03e-6,"MEAN_MOTION_DDOT":0},{"OBJECT_NAME":"AQUA","OBJECT_ID":"2002-022A","EPOCH":"2026-03-18T16:06:57.272544","MEAN_MOTION":14.61997998,"ECCENTRICITY":7.352e-5,"INCLINATION":98.419,"RA_OF_ASC_NODE":45.201,"ARG_OF_PERICENTER":110.3365,"MEAN_ANOMALY":62.5226,"EPHEMERIS_TYPE":0,"CLASSIFICATION_TYPE":"U","NORAD_CAT_ID":27424,"ELEMENT_SET_NO":999,"REV_AT_EPOCH":27004,"BSTAR":0.00018784156,"MEAN_MOTION_DOT":8.92e-6,"MEAN_MOTION_DDOT":0},{"OBJECT_NAME":"CZ-4B R/B","OBJECT_ID":"2002-024C","EPOCH":"2026-03-18T13:58:07.648608","MEAN_MOTION":14.14549158,"ECCENTRICITY":0.00500339,"INCLINATION":98.8819,"RA_OF_ASC_NODE":130.9432,"ARG_OF_PERICENTER":359.0472,"MEAN_ANOMALY":170.8661,"EPHEMERIS_TYPE":0,"CLASSIFICATION_TYPE":"U","NORAD_CAT_ID":27432,"ELEMENT_SET_NO":999,"REV_AT_EPOCH":23049,"BSTAR":4.3037801e-5,"MEAN_MOTION_DOT":3.9e-7,"MEAN_MOTION_DDOT":0},{"OBJECT_NAME":"MIDORI II (ADEOS-II)","OBJECT_ID":"2002-056A","EPOCH":"2026-03-18T14:58:57.920736","MEAN_MOTION":14.29291889,"ECCENTRICITY":0.00012292,"INCLINATION":98.7784,"RA_OF_ASC_NODE":36.1645,"ARG_OF_PERICENTER":31.4476,"MEAN_ANOMALY":328.6778,"EPHEMERIS_TYPE":0,"CLASSIFICATION_TYPE":"U","NORAD_CAT_ID":27597,"ELEMENT_SET_NO":999,"REV_AT_EPOCH":21157,"BSTAR":0.0001238359,"MEAN_MOTION_DOT":2.7e-6,"MEAN_MOTION_DDOT":0},{"OBJECT_NAME":"H-2A R/B","OBJECT_ID":"2002-056E","EPOCH":"2026-03-18T10:34:01.413696","MEAN_MOTION":14.33766445,"ECCENTRICITY":0.00709946,"INCLINATION":98.3218,"RA_OF_ASC_NODE":37.4735,"ARG_OF_PERICENTER":134.8017,"MEAN_ANOMALY":335.9289,"EPHEMERIS_TYPE":0,"CLASSIFICATION_TYPE":"U","NORAD_CAT_ID":27601,"ELEMENT_SET_NO":999,"REV_AT_EPOCH":21536,"BSTAR":9.8799369e-5,"MEAN_MOTION_DOT":2.41e-6,"MEAN_MOTION_DDOT":0},{"OBJECT_NAME":"CZ-4B R/B","OBJECT_ID":"2003-049C","EPOCH":"2026-03-18T09:24:36.660672","MEAN_MOTION":14.55028306,"ECCENTRICITY":0.00476516,"INCLINATION":98.6886,"RA_OF_ASC_NODE":72.6388,"ARG_OF_PERICENTER":203.9081,"MEAN_ANOMALY":155.9902,"EPHEMERIS_TYPE":0,"CLASSIFICATION_TYPE":"U","NORAD_CAT_ID":28059,"ELEMENT_SET_NO":999,"REV_AT_EPOCH":18786,"BSTAR":8.5858394e-5,"MEAN_MOTION_DOT":3.24e-6,"MEAN_MOTION_DDOT":0},{"OBJECT_NAME":"CZ-2C R/B","OBJECT_ID":"2004-012C","EPOCH":"2026-03-18T02:42:38.378016","MEAN_MOTION":15.65523615,"ECCENTRICITY":0.00129385,"INCLINATION":97.7213,"RA_OF_ASC_NODE":143.2093,"ARG_OF_PERICENTER":274.9057,"MEAN_ANOMALY":85.0725,"EPHEMERIS_TYPE":0,"CLASSIFICATION_TYPE":"U","NORAD_CAT_ID":28222,"ELEMENT_SET_NO":999,"REV_AT_EPOCH":20559,"BSTAR":0.00046804359,"MEAN_MOTION_DOT":0.00047115,"MEAN_MOTION_DDOT":0},{"OBJECT_NAME":"SL-16 R/B","OBJECT_ID":"2004-021B","EPOCH":"2026-03-18T10:30:01.158624","MEAN_MOTION":14.14594294,"ECCENTRICITY":0.00044964,"INCLINATION":70.9997,"RA_OF_ASC_NODE":214.1339,"ARG_OF_PERICENTER":358.2588,"MEAN_ANOMALY":1.8518,"EPHEMERIS_TYPE":0,"CLASSIFICATION_TYPE":"U","NORAD_CAT_ID":28353,"ELEMENT_SET_NO":999,"REV_AT_EPOCH":12407,"BSTAR":-0.00010291652,"MEAN_MOTION_DOT":-2.45e-6,"MEAN_MOTION_DDOT":0},{"OBJECT_NAME":"CZ-4B R/B","OBJECT_ID":"2004-035C","EPOCH":"2026-03-18T02:08:08.026656","MEAN_MOTION":15.29210484,"ECCENTRICITY":0.00302142,"INCLINATION":97.3482,"RA_OF_ASC_NODE":111.2311,"ARG_OF_PERICENTER":300.3467,"MEAN_ANOMALY":59.4786,"EPHEMERIS_TYPE":0,"CLASSIFICATION_TYPE":"U","NORAD_CAT_ID":28415,"ELEMENT_SET_NO":999,"REV_AT_EPOCH":18119,"BSTAR":0.00021182498,"MEAN_MOTION_DOT":6.008e-5,"MEAN_MOTION_DDOT":0},{"OBJECT_NAME":"CZ-2C R/B","OBJECT_ID":"2004-046B","EPOCH":"2026-03-18T11:03:29.629440","MEAN_MOTION":14.26995118,"ECCENTRICITY":0.01403448,"INCLINATION":98.1982,"RA_OF_ASC_NODE":351.8986,"ARG_OF_PERICENTER":128.6272,"MEAN_ANOMALY":232.7572,"EPHEMERIS_TYPE":0,"CLASSIFICATION_TYPE":"U","NORAD_CAT_ID":28480,"ELEMENT_SET_NO":999,"REV_AT_EPOCH":10975,"BSTAR":6.1771682e-5,"MEAN_MOTION_DOT":1.27e-6,"MEAN_MOTION_DDOT":0},{"OBJECT_NAME":"ARIANE 5 R/B","OBJECT_ID":"2004-049H","EPOCH":"2026-03-18T10:59:18.151872","MEAN_MOTION":14.85281849,"ECCENTRICITY":0.0083357,"INCLINATION":98.264,"RA_OF_ASC_NODE":246.2438,"ARG_OF_PERICENTER":323.341,"MEAN_ANOMALY":36.2117,"EPHEMERIS_TYPE":0,"CLASSIFICATION_TYPE":"U","NORAD_CAT_ID":28499,"ELEMENT_SET_NO":999,"REV_AT_EPOCH":14709,"BSTAR":8.5564436e-5,"MEAN_MOTION_DOT":7.16e-6,"MEAN_MOTION_DDOT":0},{"OBJECT_NAME":"CZ-2D R/B","OBJECT_ID":"2005-024B","EPOCH":"2026-03-18T11:51:26.532576","MEAN_MOTION":15.60932652,"ECCENTRICITY":0.00043058,"INCLINATION":97.3581,"RA_OF_ASC_NODE":92.9681,"ARG_OF_PERICENTER":22.4109,"MEAN_ANOMALY":337.7336,"EPHEMERIS_TYPE":0,"CLASSIFICATION_TYPE":"U","NORAD_CAT_ID":28738,"ELEMENT_SET_NO":999,"REV_AT_EPOCH":14115,"BSTAR":0.00038021211,"MEAN_MOTION_DOT":0.00031794,"MEAN_MOTION_DDOT":0}]
